{
  "norad_id": 59416,
  "name": "STARLINK-31399",
  "history": [
    {
      "epoch": "2026-03-28T21:16:27.411168Z",
      "apogee_km": 484.23887248260326,
      "perigee_km": 481.86339192747073,
      "latitude_deg": -1.929604716255084e-05,
      "longitude_deg": 162.16982663335432,
      "height_km": 482.83174614664705,
      "semi_major_axis_km": 6861.188132205037,
      "eccentricity": 0.00017311,
      "inclination_deg": 43.0034,
      "raan_deg": 307.5845,
      "arg_perigee_deg": 269.8425,
      "mean_anomaly_deg": 90.2228,
      "mean_motion_rev_day": 15.2757932
    },
    {
      "epoch": "2026-03-29T22:22:57.218880Z",
      "apogee_km": 484.1106771742425,
      "perigee_km": 481.9007031137471,
      "latitude_deg": -6.61946053613731e-06,
      "longitude_deg": 138.60648136441299,
      "height_km": 482.78878560357276,
      "semi_major_axis_km": 6861.1426901439945,
      "eccentricity": 0.00016105,
      "inclination_deg": 43.0026,
      "raan_deg": 301.6765,
      "arg_perigee_deg": 269.6923,
      "mean_anomaly_deg": 90.3744,
      "mean_motion_rev_day": 15.27594496
    },
    {
      "epoch": "2026-03-30T14:04:31.973088Z",
      "apogee_km": 484.00339943432573,
      "perigee_km": 482.08350392033753,
      "latitude_deg": -2.423009773424031e-05,
      "longitude_deg": -101.1255339897486,
      "height_km": 482.7955870634791,
      "semi_major_axis_km": 6861.180451677332,
      "eccentricity": 0.00013991,
      "inclination_deg": 43.0021,
      "raan_deg": 297.9838,
      "arg_perigee_deg": 271.4807,
      "mean_anomaly_deg": 88.5884,
      "mean_motion_rev_day": 15.27581885
    },
    {
      "epoch": "2026-03-30T21:55:19.121664Z",
      "apogee_km": 484.03949434362494,
      "perigee_km": 482.10820071426224,
      "latitude_deg": -3.230942545961951e-05,
      "longitude_deg": 139.00946393638537,
      "height_km": 482.8124638114108,
      "semi_major_axis_km": 6861.210847528943,
      "eccentricity": 0.00014074,
      "inclination_deg": 43.0022,
      "raan_deg": 296.1375,
      "arg_perigee_deg": 272.2758,
      "mean_anomaly_deg": 87.7932,
      "mean_motion_rev_day": 15.27571734
    },
    {
      "epoch": "2026-03-31T13:36:53.028288Z",
      "apogee_km": 484.0085996760181,
      "perigee_km": 482.1629307521762,
      "latitude_deg": 2.954605646991689e-05,
      "longitude_deg": -100.71942522450965,
      "height_km": 482.8889377103467,
      "semi_major_axis_km": 6861.222765214097,
      "eccentricity": 0.0001345,
      "inclination_deg": 43.0023,
      "raan_deg": 292.4443,
      "arg_perigee_deg": 268.369,
      "mean_anomaly_deg": 91.7008,
      "mean_motion_rev_day": 15.27567754
    },
    {
      "epoch": "2026-04-01T19:25:50.738592Z",
      "apogee_km": 483.97832855658635,
      "perigee_km": 482.118947248714,
      "latitude_deg": -4.311255730350287e-05,
      "longitude_deg": 163.79923843307816,
      "height_km": 482.8795181284803,
      "semi_major_axis_km": 6861.185637902649,
      "eccentricity": 0.0001355,
      "inclination_deg": 43.002,
      "raan_deg": 285.428,
      "arg_perigee_deg": 266.6703,
      "mean_anomaly_deg": 93.3993,
      "mean_motion_rev_day": 15.27580153
    },
    {
      "epoch": "2026-04-02T18:58:11.556192Z",
      "apogee_km": 484.07158355912634,
      "perigee_km": 482.01322973713104,
      "latitude_deg": -2.4948440602803014e-06,
      "longitude_deg": 164.20662538981136,
      "height_km": 482.8788647019161,
      "semi_major_axis_km": 6861.179406648128,
      "eccentricity": 0.00015,
      "inclination_deg": 43.0018,
      "raan_deg": 279.8888,
      "arg_perigee_deg": 266.6866,
      "mean_anomaly_deg": 93.3814,
      "mean_motion_rev_day": 15.27582234
    },
    {
      "epoch": "2026-04-02T20:32:20.890176Z",
      "apogee_km": 483.86164090858165,
      "perigee_km": 482.2188006348397,
      "latitude_deg": 3.7957153017432414e-05,
      "longitude_deg": 140.2350297781777,
      "height_km": 482.8017618885987,
      "semi_major_axis_km": 6861.17722077171,
      "eccentricity": 0.00011972,
      "inclination_deg": 43.0012,
      "raan_deg": 279.5205,
      "arg_perigee_deg": 271.0548,
      "mean_anomaly_deg": 89.0167,
      "mean_motion_rev_day": 15.27582964
    },
    {
      "epoch": "2026-04-03T20:04:41.438208Z",
      "apogee_km": 483.8149112367182,
      "perigee_km": 482.2629132453694,
      "latitude_deg": 6.159963038562658e-06,
      "longitude_deg": 140.64316503950806,
      "height_km": 482.90603715239473,
      "semi_major_axis_km": 6861.175912241043,
      "eccentricity": 0.0001131,
      "inclination_deg": 43.0008,
      "raan_deg": 273.981,
      "arg_perigee_deg": 263.2966,
      "mean_anomaly_deg": 96.7757,
      "mean_motion_rev_day": 15.27583401
    },
    {
      "epoch": "2026-04-04T19:37:02.980704Z",
      "apogee_km": 483.9145873735706,
      "perigee_km": 482.2253582168687,
      "latitude_deg": -1.546461557531414e-05,
      "longitude_deg": 141.04775537726786,
      "height_km": 482.92773525458466,
      "semi_major_axis_km": 6861.206972795219,
      "eccentricity": 0.0001231,
      "inclination_deg": 43.0018,
      "raan_deg": 268.4421,
      "arg_perigee_deg": 264.4957,
      "mean_anomaly_deg": 95.5754,
      "mean_motion_rev_day": 15.27573028
    },
    {
      "epoch": "2026-04-05T12:52:46.781184Z",
      "apogee_km": 483.9741058122372,
      "perigee_km": 482.18524940005136,
      "latitude_deg": 2.9918802197783743e-05,
      "longitude_deg": -122.65683136098117,
      "height_km": 483.21118076334415,
      "semi_major_axis_km": 6861.216677606144,
      "eccentricity": 0.00013036,
      "inclination_deg": 43.0015,
      "raan_deg": 264.3789,
      "arg_perigee_deg": 246.6253,
      "mean_anomaly_deg": 113.4462,
      "mean_motion_rev_day": 15.27569787
    },
    {
      "epoch": "2026-04-05T19:09:24.154272Z",
      "apogee_km": 483.9541728910426,
      "perigee_km": 482.1178485464543,
      "latitude_deg": 1.613871209740252e-05,
      "longitude_deg": 141.4530430711895,
      "height_km": 483.16042122555024,
      "semi_major_axis_km": 6861.173010718748,
      "eccentricity": 0.00013382,
      "inclination_deg": 43.0014,
      "raan_deg": 262.9023,
      "arg_perigee_deg": 247.7447,
      "mean_anomaly_deg": 112.3263,
      "mean_motion_rev_day": 15.2758437
    },
    {
      "epoch": "2026-04-06T18:41:44.138112Z",
      "apogee_km": 484.0211297048472,
      "perigee_km": 482.0803741373393,
      "latitude_deg": 2.5303963440344937e-05,
      "longitude_deg": 141.86567691797828,
      "height_km": 482.7984807973859,
      "semi_major_axis_km": 6861.187751921093,
      "eccentricity": 0.00014143,
      "inclination_deg": 43.0022,
      "raan_deg": 257.3649,
      "arg_perigee_deg": 271.7262,
      "mean_anomaly_deg": 88.3428,
      "mean_motion_rev_day": 15.27579447
    },
    {
      "epoch": "2026-04-07T18:14:05.479296Z",
      "apogee_km": 484.06437095431284,
      "perigee_km": 482.1445955872932,
      "latitude_deg": -2.621635304405561e-05,
      "longitude_deg": 142.26937448768527,
      "height_km": 482.8569513639359,
      "semi_major_axis_km": 6861.241483270803,
      "eccentricity": 0.0001399,
      "inclination_deg": 43.0037,
      "raan_deg": 251.8243,
      "arg_perigee_deg": 271.4717,
      "mean_anomaly_deg": 88.5974,
      "mean_motion_rev_day": 15.27561503
    },
    {
      "epoch": "2026-04-08T16:12:17.285184Z",
      "apogee_km": 483.9928615448953,
      "perigee_km": 482.14541318034935,
      "latitude_deg": -4.817146513236805e-06,
      "longitude_deg": 166.64872969154837,
      "height_km": 483.04647494049806,
      "semi_major_axis_km": 6861.206137362622,
      "eccentricity": 0.00013463,
      "inclination_deg": 43.0022,
      "raan_deg": 246.6551,
      "arg_perigee_deg": 257.4645,
      "mean_anomaly_deg": 102.6056,
      "mean_motion_rev_day": 15.27573307
    },
    {
      "epoch": "2026-04-09T17:18:46.676448Z",
      "apogee_km": 483.9284985783679,
      "perigee_km": 482.18575527012854,
      "latitude_deg": -2.3523795884894717e-05,
      "longitude_deg": 143.0848873777893,
      "height_km": 483.2442836478808,
      "semi_major_axis_km": 6861.194126924248,
      "eccentricity": 0.000127,
      "inclination_deg": 43.0026,
      "raan_deg": 240.7449,
      "arg_perigee_deg": 241.8977,
      "mean_anomaly_deg": 118.1746,
      "mean_motion_rev_day": 15.27577318
    },
    {
      "epoch": "2026-04-10T09:00:21.045312Z",
      "apogee_km": 483.9583187754006,
      "perigee_km": 482.1840103440454,
      "latitude_deg": 3.7671875559202263e-06,
      "longitude_deg": -96.6455725169163,
      "height_km": 483.2866415219914,
      "semi_major_axis_km": 6861.208164559723,
      "eccentricity": 0.0001293,
      "inclination_deg": 43.0025,
      "raan_deg": 237.0521,
      "arg_perigee_deg": 240.3562,
      "mean_anomaly_deg": 119.7161,
      "mean_motion_rev_day": 15.2757263
    },
    {
      "epoch": "2026-04-11T17:57:38.539872Z",
      "apogee_km": 483.93706068877236,
      "perigee_km": 482.206663813713,
      "latitude_deg": 1.0069291648838085e-06,
      "longitude_deg": 119.92751989204808,
      "height_km": 482.71031992404994,
      "semi_major_axis_km": 6861.208862251243,
      "eccentricity": 0.0001261,
      "inclination_deg": 43.0035,
      "raan_deg": 229.3015,
      "arg_perigee_deg": 279.2131,
      "mean_anomaly_deg": 80.8578,
      "mean_motion_rev_day": 15.27572397
    },
    {
      "epoch": "2026-04-13T07:37:23.472192Z",
      "apogee_km": 483.84688478174576,
      "perigee_km": 482.27127971341815,
      "latitude_deg": 3.918244517921026e-05,
      "longitude_deg": -95.4195012565465,
      "height_km": 482.9479195590845,
      "semi_major_axis_km": 6861.196082247581,
      "eccentricity": 0.00011482,
      "inclination_deg": 43.0031,
      "raan_deg": 220.4384,
      "arg_perigee_deg": 261.8243,
      "mean_anomaly_deg": 98.2479,
      "mean_motion_rev_day": 15.27576665
    },
    {
      "epoch": "2026-04-14T15:00:31.584384Z",
      "apogee_km": 483.86107028723654,
      "perigee_km": 482.27750387617743,
      "latitude_deg": -3.140515088625864e-05,
      "longitude_deg": 145.1226637741463,
      "height_km": 482.94495764853093,
      "semi_major_axis_km": 6861.206287081706,
      "eccentricity": 0.0001154,
      "inclination_deg": 43.0031,
      "raan_deg": 213.0534,
      "arg_perigee_deg": 262.8283,
      "mean_anomaly_deg": 97.2437,
      "mean_motion_rev_day": 15.27573257
    },
    {
      "epoch": "2026-04-15T14:32:51.698688Z",
      "apogee_km": 483.8572266697256,
      "perigee_km": 482.25445202245373,
      "latitude_deg": -1.6477957917153817e-05,
      "longitude_deg": 145.5322627494625,
      "height_km": 483.15594351415785,
      "semi_major_axis_km": 6861.192839346089,
      "eccentricity": 0.0001168,
      "inclination_deg": 43.0023,
      "raan_deg": 207.5135,
      "arg_perigee_deg": 246.1941,
      "mean_anomaly_deg": 113.8788,
      "mean_motion_rev_day": 15.27577748
    }
  ]
}